[{"OBJECT_NAME":"ONEWEB-0510","OBJECT_ID":"2022-138R","EPOCH":"2026-03-09T15:54:27.204768","MEAN_MOTION":13.20770277,"ECCENTRICITY":0.00016646,"INCLINATION":87.9172,"RA_OF_ASC_NODE":294.3077,"ARG_OF_PERICENTER":68.6527,"MEAN_ANOMALY":291.4784,"EPHEMERIS_TYPE":0,"CLASSIFICATION_TYPE":"U","NORAD_CAT_ID":54128,"ELEMENT_SET_NO":999,"REV_AT_EPOCH":16614,"BSTAR":0.00016457728,"MEAN_MOTION_DOT":8.0e-7,"MEAN_MOTION_DDOT":0},{"OBJECT_NAME":"FENGYUN 1C DEB","OBJECT_ID":"1999-025AQS","EPOCH":"2026-03-09T01:28:31.050336","MEAN_MOTION":13.67055719,"ECCENTRICITY":0.02345904,"INCLINATION":99.5212,"RA_OF_ASC_NODE":113.2013,"ARG_OF_PERICENTER":48.622,"MEAN_ANOMALY":313.4838,"EPHEMERIS_TYPE":0,"CLASSIFICATION_TYPE":"U","NORAD_CAT_ID":30684,"ELEMENT_SET_NO":999,"REV_AT_EPOCH":94808,"BSTAR":0.0014376814,"MEAN_MOTION_DOT":1.412e-5,"MEAN_MOTION_DDOT":0}]
